{
  "links" : {
    "next" : "https://api.nasa.gov/neo/rest/v1/feed?start_date=2012-11-16&end_date=2012-11-16&detailed=true&api_key=t0TVs3DtDT2H8Oy2Zy8m2eVrNsAVKAexjcZXUckd",
    "prev" : "https://api.nasa.gov/neo/rest/v1/feed?start_date=2012-11-14&end_date=2012-11-14&detailed=true&api_key=t0TVs3DtDT2H8Oy2Zy8m2eVrNsAVKAexjcZXUckd",
    "self" : "https://api.nasa.gov/neo/rest/v1/feed?start_date=2012-11-15&end_date=2012-11-15&detailed=true&api_key=t0TVs3DtDT2H8Oy2Zy8m2eVrNsAVKAexjcZXUckd"
  },
  "element_count" : 8,
  "near_earth_objects" : {
    "2012-11-15" : [ {
      "links" : {
        "self" : "https://api.nasa.gov/neo/rest/v1/neo/3739155?api_key=t0TVs3DtDT2H8Oy2Zy8m2eVrNsAVKAexjcZXUckd"
      },
      "neo_reference_id" : "3739155",
      "name" : "(2016 AE2)",
      "nasa_jpl_url" : "http://ssd.jpl.nasa.gov/sbdb.cgi?sstr=3739155",
      "absolute_magnitude_h" : 26.4,
      "estimated_diameter" : {
        "kilometers" : {
          "estimated_diameter_min" : 0.0139493823,
          "estimated_diameter_max" : 0.0311917671
        },
        "meters" : {
          "estimated_diameter_min" : 13.9493822934,
          "estimated_diameter_max" : 31.1917670523
        },
        "miles" : {
          "estimated_diameter_min" : 0.0086677416,
          "estimated_diameter_max" : 0.0193816595
        },
        "feet" : {
          "estimated_diameter_min" : 45.7656914036,
          "estimated_diameter_max" : 102.3351970157
        }
      },
      "is_potentially_hazardous_asteroid" : false,
      "close_approach_data" : [ {
        "close_approach_date" : "2012-11-15",
        "epoch_date_close_approach" : 1352966400000,
        "relative_velocity" : {
          "kilometers_per_second" : "21.4086475309",
          "kilometers_per_hour" : "77071.1311110946",
          "miles_per_hour" : "47889.0036617798"
        },
        "miss_distance" : {
          "astronomical" : "0.4334281823",
          "lunar" : "168.6035614014",
          "kilometers" : "64839932",
          "miles" : "40289664"
        },
        "orbiting_body" : "Earth"
      } ],
      "orbital_data" : {
        "orbit_id" : "4",
        "orbit_determination_date" : "2017-07-04 06:19:06",
        "orbit_uncertainty" : "8",
        "minimum_orbit_intersection" : ".00824096",
        "jupiter_tisserand_invariant" : "7.215",
        "epoch_osculation" : "2457389.5",
        "eccentricity" : ".2987865236008573",
        "semi_major_axis" : ".8048710969882795",
        "inclination" : ".7158741266741214",
        "ascending_node_longitude" : "330.187975294143",
        "orbital_period" : "263.7472408531266",
        "perihelion_distance" : ".564386459972343",
        "perihelion_argument" : "286.4995865142687",
        "aphelion_distance" : "1.045355734004216",
        "perihelion_time" : "2457492.030639332815",
        "mean_anomaly" : "220.0515021866404",
        "mean_motion" : "1.364943188924103",
        "equinox" : "J2000"
      }
    }, {
      "links" : {
        "self" : "https://api.nasa.gov/neo/rest/v1/neo/3766433?api_key=t0TVs3DtDT2H8Oy2Zy8m2eVrNsAVKAexjcZXUckd"
      },
      "neo_reference_id" : "3766433",
      "name" : "(2017 AG13)",
      "nasa_jpl_url" : "http://ssd.jpl.nasa.gov/sbdb.cgi?sstr=3766433",
      "absolute_magnitude_h" : 26.1,
      "estimated_diameter" : {
        "kilometers" : {
          "estimated_diameter_min" : 0.0160160338,
          "estimated_diameter_max" : 0.0358129403
        },
        "meters" : {
          "estimated_diameter_min" : 16.0160337979,
          "estimated_diameter_max" : 35.8129403019
        },
        "miles" : {
          "estimated_diameter_min" : 0.0099518989,
          "estimated_diameter_max" : 0.0222531225
        },
        "feet" : {
          "estimated_diameter_min" : 52.5460443254,
          "estimated_diameter_max" : 117.4965270602
        }
      },
      "is_potentially_hazardous_asteroid" : false,
      "close_approach_data" : [ {
        "close_approach_date" : "2012-11-15",
        "epoch_date_close_approach" : 1352966400000,
        "relative_velocity" : {
          "kilometers_per_second" : "11.6329200689",
          "kilometers_per_hour" : "41878.5122479122",
          "miles_per_hour" : "26021.678902043"
        },
        "miss_distance" : {
          "astronomical" : "0.4995266825",
          "lunar" : "194.3158721924",
          "kilometers" : "74728128",
          "miles" : "46433908"
        },
        "orbiting_body" : "Earth"
      } ],
      "orbital_data" : {
        "orbit_id" : "5",
        "orbit_determination_date" : "2017-04-06 08:21:06",
        "orbit_uncertainty" : "6",
        "minimum_orbit_intersection" : ".000646304",
        "jupiter_tisserand_invariant" : "6.147",
        "epoch_osculation" : "2458000.5",
        "eccentricity" : ".4288963101572444",
        "semi_major_axis" : ".9632387287958556",
        "inclination" : "16.45239648477397",
        "ascending_node_longitude" : "289.2612877730508",
        "orbital_period" : "345.3021883429179",
        "perihelion_distance" : ".5501091922147585",
        "perihelion_argument" : "297.8889334280715",
        "aphelion_distance" : "1.376368265376953",
        "perihelion_time" : "2457828.438450044006",
        "mean_anomaly" : "179.3853617940103",
        "mean_motion" : "1.042565069534068",
        "equinox" : "J2000"
      }
    } ]
  }
}